[Satellite]
VERSION=1.1
NAME=MTSAT-2
NICKNAME=MTSAT-2
TLE1=1 28937U 06004A   15054.81457549 -.00000269  00000-0  00000+0 0  9994
TLE2=2 28937   0.0394 272.8929 0003296  48.8842 269.8204  1.00270069 32988
